     2.100          NAVIGATION                              RINEX VERSION / TYPE
fic2rin                                 03/25/2016 00:44:29 PGM / RUN BY / DATE
                                                            END OF HEADER
 9 16  3 24  6  0  0.0  .959634780884D-04  .750333128963D-11  .000000000000D+00
     .510000000000D+02  .908750000000D+02  .471269630272D-08 -.140234367404D+01
     .466220080853D-05  .651469104923D-03  .663101673126D-05  .515361622810D+04
     .367200000000D+06  .633299350739D-07  .104860452339D+01  .502914190292D-07
     .955391823333D+00  .248875000000D+03  .199763912210D+01 -.828141638280D-08
     .426803492364D-09  .100000000000D+01  .188900000000D+04  .000000000000D+00
     .240000000000D+01  .000000000000D+00  .139698386192D-08  .510000000000D+02
     .360006000000D+06  .400000000000D+01
10 16  3 24  6  0  0.0  .200970098376D-04 -.932232069317D-11  .000000000000D+00
     .190000000000D+02 -.235312500000D+02  .433339478900D-08  .615698675807D+00
    -.116415321827D-05  .129558937624D-02  .114478170872D-04  .515369181824D+04
     .367200000000D+06  .204890966415D-07  .478366897330D-02 -.111758708954D-07
     .960063859953D+00  .154875000000D+03 -.280533991342D+01 -.792783022595D-08
    -.318227541169D-09  .100000000000D+01  .188900000000D+04  .000000000000D+00
     .240000000000D+01  .000000000000D+00  .232830643654D-08  .190000000000D+02
     .360006000000D+06  .400000000000D+01
12 16  3 24  6  0  0.0  .373634509742D-03  .147792889038D-11  .000000000000D+00
     .990000000000D+02 -.405937500000D+02  .352193241691D-08  .168350186020D+01
    -.209361314774D-05  .601211795583D-02  .127684324980D-04  .515377237701D+04
     .367200000000D+06 -.113621354103D-06 -.308167461289D+01  .502914190292D-07
     .990674213855D+00  .146625000000D+03  .695249739828D+00 -.756281502160D-08
    -.335728270144D-10  .100000000000D+01  .188900000000D+04  .000000000000D+00
     .240000000000D+01  .000000000000D+00 -.121071934700D-07  .990000000000D+02
     .360006000000D+06  .400000000000D+01
13 16  3 24  6  0  0.0 -.578071922064D-05 -.284217094304D-11  .000000000000D+00
     .930000000000D+02  .830625000000D+02  .431160816722D-08  .309445321548D+01
     .435486435890D-05  .459957134444D-02  .603310763836D-05  .515368133545D+04
     .367200000000D+06  .186264514923D-07  .116838929439D+01 -.223517417908D-07
     .971735065740D+00  .269781250000D+03  .198464780976D+01 -.803247744207D-08
     .376087094108D-09  .100000000000D+01  .188900000000D+04  .000000000000D+00
     .240000000000D+01  .000000000000D+00 -.111758708954D-07  .930000000000D+02
     .360006000000D+06  .400000000000D+01
14 16  3 24  6  0  0.0 -.432273373008D-05 -.216004991671D-11  .000000000000D+00
     .770000000000D+02  .778125000000D+02  .453161733148D-08 -.137292101213D+01
     .410713255405D-05  .840866903309D-02  .592134892941D-05  .515374018669D+04
     .367200000000D+06  .158324837685D-06  .113174213443D+01  .178813934326D-06
     .964257270740D+00  .269125000000D+03 -.195246474431D+01 -.820284168128D-08
     .318227541169D-09  .100000000000D+01  .188900000000D+04  .000000000000D+00
     .240000000000D+01  .000000000000D+00 -.931322574615D-08  .770000000000D+02
     .360006000000D+06  .400000000000D+01
15 16  3 24  6  0  0.0 -.303179025650D-03 -.181898940355D-11  .000000000000D+00
     .340000000000D+02  .914062500000D+02  .514199989922D-08 -.216890515503D+01
     .468268990517D-05  .809668889269D-02  .725872814655D-05  .515356340218D+04
     .367200000000D+06  .167638063431D-07  .997598469912D+00 -.100582838058D-06
     .931191601948D+00  .224875000000D+03  .478375594378D+00 -.839463538454D-08
     .500735143343D-09  .100000000000D+01  .188900000000D+04  .000000000000D+00
     .240000000000D+01  .000000000000D+00 -.107102096081D-07  .340000000000D+02
     .360006000000D+06  .400000000000D+01
16 16  3 24  6  0  0.0 -.298530794680D-04  .284217094304D-11  .000000000000D+00
     .290000000000D+02 -.260625000000D+02  .356443418728D-08 -.366617989465D+00
    -.119581818581D-05  .870483776089D-02  .116471201181D-04  .515373317909D+04
     .367200000000D+06  .106170773506D-06 -.306292495948D+01  .577419996262D-07
     .991192408697D+00  .169812500000D+03  .346550410713D+00 -.762353183642D-08
     .235724104569D-10  .100000000000D+01  .188900000000D+04  .000000000000D+00
     .240000000000D+01  .000000000000D+00 -.102445483208D-07  .290000000000D+02
     .360006000000D+06  .400000000000D+01
17 16  3 24  6  0  0.0 -.202404800802D-03 -.454747350886D-12  .000000000000D+00
     .107000000000D+03  .725000000000D+02  .452054544172D-08 -.130390414763D+01
     .402890145779D-05  .109898250084D-01  .683590769768D-05  .515365848923D+04
     .367200000000D+06  .119209289551D-06 -.204098863685D+01  .255182385445D-06
     .975494178574D+00  .256187500000D+03 -.193516877066D+01 -.809212278368D-08
     .545737017852D-09  .100000000000D+01  .188900000000D+04  .000000000000D+00
     .340000000000D+01  .000000000000D+00 -.107102096081D-07  .107000000000D+03
     .360006000000D+06  .400000000000D+01
18 16  3 24  6  0  0.0  .496999360621D-03  .409272615798D-11  .000000000000D+00
     .710000000000D+02 -.231250000000D+02  .524128974933D-08  .256299227389D+00
    -.100955367088D-05  .168724613031D-01  .114124268293D-04  .515367482185D+04
     .367200000000D+06 -.286847352982D-06 -.218709895516D-01  .987201929092D-07
     .925530859458D+00  .146125000000D+03 -.190265049655D+01 -.859357224249D-08
    -.386801826134D-09  .100000000000D+01  .188900000000D+04  .000000000000D+00
     .240000000000D+01  .000000000000D+00 -.111758708954D-07  .710000000000D+02
     .360006000000D+06  .400000000000D+01
20 16  3 24  6  0  0.0  .401346012950D-03  .250111042988D-11  .000000000000D+00
     .520000000000D+02 -.378125000000D+02  .498377902297D-08 -.206794337499D+01
    -.192783772945D-05  .474353646860D-02  .118184834719D-04  .515371896553D+04
     .367200000000D+06  .819563865662D-07 -.737543462217D-01 -.130385160446D-07
     .926769983255D+00  .132968750000D+03  .134650865380D+01 -.816926885427D-08
    -.368229623956D-09  .100000000000D+01  .188900000000D+04  .000000000000D+00
     .240000000000D+01  .000000000000D+00 -.838190317154D-08  .520000000000D+02
     .360006000000D+06  .400000000000D+01
21 16  3 24  6  0  0.0 -.516178552061D-03 -.159161572810D-11  .000000000000D+00
     .680000000000D+02 -.422500000000D+02  .578595529398D-08  .112365093787D+01
    -.246614217758D-05  .233157718321D-01  .454299151897D-05  .515364083481D+04
     .367200000000D+06 -.437721610069D-06 -.106398646331D+01 -.162050127983D-06
     .935655496047D+00  .290468750000D+03 -.181190865197D+01 -.908573560021D-08
    -.367515308488D-09  .100000000000D+01  .188900000000D+04  .000000000000D+00
     .240000000000D+01  .000000000000D+00 -.116415321827D-07  .680000000000D+02
     .360006000000D+06  .400000000000D+01
22 16  3 24  6  0  0.0  .375892966986D-03 -.693489710102D-11  .000000000000D+00
     .330000000000D+02 -.178750000000D+02  .507199698332D-08 -.134779037338D+01
    -.998377799988D-06  .779519148637D-02  .112783163786D-04  .515507011032D+04
     .367200000000D+06  .126659870148D-06 -.211256752149D-01  .191852450371D-06
     .923397123219D+00  .139468750000D+03 -.200505092779D+01 -.822784272268D-08
    -.332156692802D-09  .100000000000D+01  .188900000000D+04  .000000000000D+00
     .240000000000D+01  .000000000000D+00 -.176951289177D-07  .330000000000D+02
     .360006000000D+06  .400000000000D+01
23 16  3 24  6  0  0.0 -.166115351021D-03 -.181898940355D-11  .000000000000D+00
     .130000000000D+02  .891875000000D+02  .483055835500D-08 -.259009010443D+01
     .444054603577D-05  .106126404135D-01  .652112066746D-05  .515370802116D+04
     .367200000000D+06  .000000000000D+00  .105443752448D+01 -.763684511185D-07
     .946339744152D+00  .246750000000D+03 -.260198910850D+01 -.818355516363D-08
     .475019786481D-09  .100000000000D+01  .188900000000D+04  .000000000000D+00
     .240000000000D+01  .000000000000D+00 -.200234353542D-07  .130000000000D+02
     .360006000000D+06  .400000000000D+01
24 16  3 24  6  0  0.0 -.144117511809D-04 -.682121026330D-12  .000000000000D+00
     .390000000000D+02 -.482812500000D+02  .500949437983D-08  .307410043061D+01
    -.244751572609D-05  .437322049402D-02  .332668423653D-05  .515362493134D+04
     .367200000000D+06 -.745058059692D-08  .208099912009D+01  .000000000000D+00
     .949855619059D+00  .311093750000D+03  .398818972731D+00 -.851392606777D-08
    -.172507185617D-09  .100000000000D+01  .188900000000D+04  .000000000000D+00
     .240000000000D+01  .000000000000D+00  .232830643654D-08  .390000000000D+02
     .360006000000D+06  .400000000000D+01
25 16  3 24  6  0  0.0 -.139864161611D-03 -.704858393874D-11  .000000000000D+00
     .620000000000D+02 -.391875000000D+02  .385373195198D-08  .114409991107D+01
    -.215321779251D-05  .542720966041D-02  .122021883726D-04  .515378575134D+04
     .367200000000D+06 -.391155481339D-07 -.313179143600D+01  .465661287308D-07
     .978937042166D+00  .152718750000D+03  .727998837537D+00 -.773746515362D-08
    -.110004582132D-09  .100000000000D+01  .188900000000D+04  .000000000000D+00
     .240000000000D+01  .000000000000D+00  .558793544769D-08  .620000000000D+02
     .360006000000D+06  .400000000000D+01
26 16  3 24  6  0  0.0 -.304343178868D-03 -.143245415529D-10  .000000000000D+00
     .630000000000D+02 -.387187500000D+02  .420303221602D-08  .432844128530D+00
    -.195950269699D-05  .966898864135D-03  .114627182484D-04  .515373438263D+04
     .367200000000D+06  .223517417908D-07 -.313962947458D+01  .298023223877D-07
     .960925922467D+00  .158593750000D+03  .341826594107D-01 -.784389815841D-08
    -.564309220030D-10  .100000000000D+01  .188900000000D+04  .000000000000D+00
     .240000000000D+01  .000000000000D+00  .698491930962D-08  .630000000000D+02
     .360006000000D+06  .400000000000D+01
